FLOCK 4G-24             
1 62637U 25009AE  26068.72509072  .00010513  00000+0  38996-3 0  9991
2 62637  97.4061 151.5140 0001802 280.2808  79.8228 15.27784978 63732
STARLINK-33654          
1 63466U 25070G   26068.54131014  .00026581  00000+0  97146-3 0  9991
2 63466  42.9983 260.6446 0000959 260.8354  99.2389 15.27597063 52957
